time_utc,raw
2026-07-19T00:20:00+00:00,METAR LTFM 190020Z 07008KT 9999 FEW018 24/19 Q1012 NOSIG RMK RWY17L 07008KT RWY34L 06008KT RWY16R 07008KT RWY36 06007KT 020V080 RWY18 07008KT
2026-07-19T00:50:00+00:00,METAR LTFM 190050Z 06009KT 9999 FEW018 24/19 Q1012 NOSIG RMK RWY17L 07008KT RWY34L 06008KT RWY16R 07007KT RWY36 06008KT RWY18 08008KT
