{
 "generated_utc": "2026-07-22T20:17:28+00:00",
 "days": 5,
 "first_date": "2026-07-18",
 "last_date": "2026-07-22",
 "total_flights": 489,
 "movements_tracked": 3783,
 "delay_known": 105,
 "median_delay": 10.0,
 "delay_hist": [
  {
   "bin": "<15",
   "count": 63
  },
  {
   "bin": "15–30",
   "count": 20
  },
  {
   "bin": "30–60",
   "count": 15
  },
  {
   "bin": "60+",
   "count": 7
  }
 ],
 "delayed_15": 42,
 "ontime": 63,
 "pct_delayed": 40.0,
 "pct_ontime": 60.0,
 "daily": [
  {
   "date": "2026-07-18",
   "flights": 3,
   "scored": 0,
   "avg_dep_delay": null
  },
  {
   "date": "2026-07-19",
   "flights": 48,
   "scored": 0,
   "avg_dep_delay": null
  },
  {
   "date": "2026-07-20",
   "flights": 184,
   "scored": 69,
   "avg_dep_delay": 23.0
  },
  {
   "date": "2026-07-21",
   "flights": 216,
   "scored": 27,
   "avg_dep_delay": 13.4
  },
  {
   "date": "2026-07-22",
   "flights": 38,
   "scored": 9,
   "avg_dep_delay": 12.7
  }
 ],
 "latest_metar": "METAR LTFM 221950Z 36008KT 310V030 9999 SCT032 BKN090 22/19 Q1011 NOSIG RMK RWY17L 35009KT RWY34L 34006KT RWY16R 33005KT RWY36 35008KT RWY18 36008KT",
 "match_rate": 0.007
}
