{
 "generated_utc": "2026-07-19T01:10:32+00:00",
 "days": 2,
 "first_date": "2026-07-18",
 "last_date": "2026-07-19",
 "total_flights": 4,
 "delayed_15": 0,
 "ontime": 0,
 "pct_delayed": null,
 "pct_ontime": null,
 "daily": [
  {
   "date": "2026-07-18",
   "flights": 3,
   "avg_dep_delay": null
  },
  {
   "date": "2026-07-19",
   "flights": 1,
   "avg_dep_delay": null
  }
 ],
 "latest_metar": "METAR LTFM 190050Z 06009KT 9999 FEW018 24/19 Q1012 NOSIG RMK RWY17L 07008KT RWY34L 06008KT RWY16R 07007KT RWY36 06008KT RWY18 08008KT",
 "match_rate": 0.0
}
