{
 "generated_utc": "2026-07-23T18:45:55+00:00",
 "days": 6,
 "first_date": "2026-07-18",
 "last_date": "2026-07-23",
 "total_flights": 592,
 "movements_tracked": 5110,
 "delay_known": 139,
 "median_delay": 8.0,
 "delay_hist": [
  {
   "bin": "<15",
   "count": 87
  },
  {
   "bin": "15–30",
   "count": 22
  },
  {
   "bin": "30–60",
   "count": 18
  },
  {
   "bin": "60+",
   "count": 12
  }
 ],
 "delayed_15": 52,
 "ontime": 87,
 "pct_delayed": 37.4,
 "pct_ontime": 62.6,
 "daily": [
  {
   "date": "2026-07-18",
   "flights": 3,
   "scored": 0,
   "avg_dep_delay": null
  },
  {
   "date": "2026-07-19",
   "flights": 48,
   "scored": 0,
   "avg_dep_delay": null
  },
  {
   "date": "2026-07-20",
   "flights": 184,
   "scored": 69,
   "avg_dep_delay": 23.0
  },
  {
   "date": "2026-07-21",
   "flights": 216,
   "scored": 27,
   "avg_dep_delay": 13.4
  },
  {
   "date": "2026-07-22",
   "flights": 135,
   "scored": 43,
   "avg_dep_delay": 26.7
  },
  {
   "date": "2026-07-23",
   "flights": 6,
   "scored": 0,
   "avg_dep_delay": null
  }
 ],
 "latest_metar": "METAR LTFM 231820Z 04009KT 9999 FEW032 22/15 Q1011 NOSIG",
 "match_rate": 0.019
}
