{
 "generated_utc": "2026-07-21T18:45:56+00:00",
 "days": 4,
 "first_date": "2026-07-18",
 "last_date": "2026-07-21",
 "total_flights": 61,
 "delayed_15": 46,
 "ontime": 9,
 "pct_delayed": 83.6,
 "pct_ontime": 16.4,
 "daily": [
  {
   "date": "2026-07-18",
   "flights": 3,
   "avg_dep_delay": null
  },
  {
   "date": "2026-07-19",
   "flights": 46,
   "avg_dep_delay": 31.0
  },
  {
   "date": "2026-07-20",
   "flights": 4,
   "avg_dep_delay": -159.5
  },
  {
   "date": "2026-07-21",
   "flights": 8,
   "avg_dep_delay": -8.7
  }
 ],
 "latest_metar": "METAR LTFM 211820Z 09007KT CAVOK 25/20 Q1014 NOSIG RMK RWY17L 10005KT RWY34L 09008KT RWY16R 10006KT RWY36 09003KT 020V140 RWY18 11006KT",
 "match_rate": 0.033
}
