{
 "generated_utc": "2026-07-18T18:21:38+00:00",
 "days": 1,
 "first_date": "2026-07-18",
 "last_date": "2026-07-18",
 "total_flights": 3,
 "delayed_15": 0,
 "ontime": 0,
 "pct_delayed": null,
 "pct_ontime": null,
 "daily": [
  {
   "date": "2026-07-18",
   "flights": 3,
   "avg_dep_delay": null
  }
 ],
 "latest_metar": "METAR LTFM 181750Z 06014KT CAVOK 26/19 Q1012 NOSIG RMK RWY17L 07012KT RWY34L 05009KT RWY16R 07013KT RWY36 05014KT RWY18 07012KT",
 "match_rate": 0.0
}
