{
 "generated_utc": "2026-07-22T18:46:11+00:00",
 "days": 5,
 "first_date": "2026-07-18",
 "last_date": "2026-07-22",
 "total_flights": 219,
 "delay_known": 47,
 "median_delay": 14.0,
 "delay_hist": [
  {
   "bin": "<15",
   "count": 24
  },
  {
   "bin": "15–30",
   "count": 9
  },
  {
   "bin": "30–60",
   "count": 7
  },
  {
   "bin": "60+",
   "count": 7
  }
 ],
 "delayed_15": 23,
 "ontime": 24,
 "pct_delayed": 48.9,
 "pct_ontime": 51.1,
 "daily": [
  {
   "date": "2026-07-18",
   "flights": 3,
   "avg_dep_delay": null
  },
  {
   "date": "2026-07-19",
   "flights": 48,
   "avg_dep_delay": null
  },
  {
   "date": "2026-07-20",
   "flights": 99,
   "avg_dep_delay": 28.1
  },
  {
   "date": "2026-07-21",
   "flights": 67,
   "avg_dep_delay": 19.7
  },
  {
   "date": "2026-07-22",
   "flights": 2,
   "avg_dep_delay": 47.0
  }
 ],
 "latest_metar": "METAR LTFM 221820Z 02011KT 9999 SCT028 BKN080 22/20 Q1011 NOSIG RMK RWY17L 01011KT RWY34L 36011KT RWY16R 36009KT RWY36 02010KT RWY18 02010KT",
 "match_rate": 0.007
}
