{
 "generated_utc": "2026-07-21T19:55:00+00:00",
 "days": 4,
 "first_date": "2026-07-18",
 "last_date": "2026-07-21",
 "total_flights": 149,
 "delay_known": 35,
 "median_delay": 11.0,
 "delay_hist": [
  {
   "bin": "<15",
   "count": 19
  },
  {
   "bin": "15–30",
   "count": 7
  },
  {
   "bin": "30–60",
   "count": 2
  },
  {
   "bin": "60+",
   "count": 7
  }
 ],
 "delayed_15": 16,
 "ontime": 19,
 "pct_delayed": 45.7,
 "pct_ontime": 54.3,
 "daily": [
  {
   "date": "2026-07-18",
   "flights": 3,
   "avg_dep_delay": null
  },
  {
   "date": "2026-07-19",
   "flights": 48,
   "avg_dep_delay": null
  },
  {
   "date": "2026-07-20",
   "flights": 87,
   "avg_dep_delay": 27.9
  },
  {
   "date": "2026-07-21",
   "flights": 11,
   "avg_dep_delay": 61.0
  }
 ],
 "latest_metar": "METAR LTFM 211920Z 07008KT CAVOK 25/21 Q1015 NOSIG RMK RWY17L 06006KT RWY34L 04006KT RWY16R 05006KT RWY36 06005KT 010V080 RWY18 07006KT",
 "match_rate": 0.041
}
